IRIDIUM 116             
1 43072U 17083C   25257.97819463  .00000086  00000+0  23678-4 0  9996
2 43072  86.3905  77.0503 0002305  84.0965 276.0493 14.34216568404721
IRIDIUM 130             
1 43073U 17083D   25258.22554603  .00000041  00000+0  76283-5 0  9990
2 43073  86.3913  77.1955 0002506  87.7475 272.4008 14.34217680404708
IRIDIUM 151             
1 43074U 17083E   25257.99086882  .00000038  00000+0  63812-5 0  9993
2 43074  86.3906  77.0966 0002247  84.0023 276.1429 14.34217857404695
IRIDIUM 134             
1 43075U 17083F   25258.23823118  .00000048  00000+0  10062-4 0  9992
2 43075  86.3909  76.9974 0002445  88.8160 271.3316 14.34217751404695
IRIDIUM 137             
1 43076U 17083G   25258.25091641 -.00000037  00000+0 -20248-4 0  9990
2 43076  86.3909  77.0794 0002129  71.9783 288.1645 14.34217139404760
IRIDIUM 141             
1 43077U 17083H   25258.24457293  .00000044  00000+0  86455-5 0  9998
2 43077  86.3905  76.9280 0002031  91.9758 268.1670 14.34217706404767
IRIDIUM 153             
1 43078U 17083J   25257.84790919  .00000148  00000+0  45699-4 0  9998
2 43078  86.3955  45.5520 0002008 103.6246 256.5173 14.34218360405812
IRIDIUM 131             
1 43079U 17083K   25258.23188727  .00000138  00000+0  42363-4 0  9995
2 43079  86.3911  77.1012 0001974  89.2339 270.9083 14.34218009404690
